[{"OBJECT_NAME":"ONEWEB-0528","OBJECT_ID":"2022-166B","EPOCH":"2026-04-15T02:54:57.221568","MEAN_MOTION":13.21824257,"ECCENTRICITY":0.0002002,"INCLINATION":87.9194,"RA_OF_ASC_NODE":256.5605,"ARG_OF_PERICENTER":93.4151,"MEAN_ANOMALY":266.7212,"EPHEMERIS_TYPE":0,"CLASSIFICATION_TYPE":"U","NORAD_CAT_ID":54643,"ELEMENT_SET_NO":999,"REV_AT_EPOCH":16321,"BSTAR":0.00013396,"MEAN_MOTION_DOT":6.8e-07,"MEAN_MOTION_DDOT":0.0},{"OBJECT_NAME":"ONEWEB-0539","OBJECT_ID":"2022-166C","EPOCH":"2026-04-15T03:50:43.553184","MEAN_MOTION":13.21826483,"ECCENTRICITY":0.0001985,"INCLINATION":87.9204,"RA_OF_ASC_NODE":256.5207,"ARG_OF_PERICENTER":104.9692,"MEAN_ANOMALY":255.1662,"EPHEMERIS_TYPE":0,"CLASSIFICATION_TYPE":"U","NORAD_CAT_ID":54644,"ELEMENT_SET_NO":999,"REV_AT_EPOCH":16321,"BSTAR":-9.458100000000001e-05,"MEAN_MOTION_DOT":-2.6e-07,"MEAN_MOTION_DDOT":0.0},{"OBJECT_NAME":"ONEWEB-0540","OBJECT_ID":"2022-166D","EPOCH":"2026-04-15T04:00:36.706464","MEAN_MOTION":13.2182633,"ECCENTRICITY":0.0001842,"INCLINATION":87.9197,"RA_OF_ASC_NODE":256.5539,"ARG_OF_PERICENTER":102.0414,"MEAN_ANOMALY":258.0927,"EPHEMERIS_TYPE":0,"CLASSIFICATION_TYPE":"U","NORAD_CAT_ID":54645,"ELEMENT_SET_NO":999,"REV_AT_EPOCH":16320,"BSTAR":-2.5517000000000003e-05,"MEAN_MOTION_DOT":2e-08,"MEAN_MOTION_DDOT":0.0},{"OBJECT_NAME":"ONEWEB-0542","OBJECT_ID":"2022-166E","EPOCH":"2026-04-15T04:05:15.458784","MEAN_MOTION":13.21826275,"ECCENTRICITY":0.0001945,"INCLINATION":87.9205,"RA_OF_ASC_NODE":256.5163,"ARG_OF_PERICENTER":107.6441,"MEAN_ANOMALY":252.4906,"EPHEMERIS_TYPE":0,"CLASSIFICATION_TYPE":"U","NORAD_CAT_ID":54646,"ELEMENT_SET_NO":999,"REV_AT_EPOCH":16321,"BSTAR":-4.198e-05,"MEAN_MOTION_DOT":-4e-08,"MEAN_MOTION_DDOT":0.0},{"OBJECT_NAME":"ONEWEB-0545","OBJECT_ID":"2022-166F","EPOCH":"2026-04-15T05:03:20.981664","MEAN_MOTION":13.21823375,"ECCENTRICITY":0.000196,"INCLINATION":87.9196,"RA_OF_ASC_NODE":256.525,"ARG_OF_PERICENTER":114.0879,"MEAN_ANOMALY":246.0461,"EPHEMERIS_TYPE":0,"CLASSIFICATION_TYPE":"U","NORAD_CAT_ID":54647,"ELEMENT_SET_NO":999,"REV_AT_EPOCH":16318,"BSTAR":0.00013791,"MEAN_MOTION_DOT":7e-07,"MEAN_MOTION_DDOT":0.0},{"OBJECT_NAME":"ONEWEB-0580","OBJECT_ID":"2022-166G","EPOCH":"2026-04-15T02:38:03.304608","MEAN_MOTION":13.2182701,"ECCENTRICITY":0.0001803,"INCLINATION":87.9197,"RA_OF_ASC_NODE":256.5453,"ARG_OF_PERICENTER":110.4868,"MEAN_ANOMALY":249.646,"EPHEMERIS_TYPE":0,"CLASSIFICATION_TYPE":"U","NORAD_CAT_ID":54648,"ELEMENT_SET_NO":999,"REV_AT_EPOCH":16321,"BSTAR":-0.00010738,"MEAN_MOTION_DOT":-3.1e-07,"MEAN_MOTION_DDOT":0.0},{"OBJECT_NAME":"ONEWEB-0582","OBJECT_ID":"2022-166H","EPOCH":"2026-04-15T03:38:35.239200","MEAN_MOTION":13.21825138,"ECCENTRICITY":0.000191,"INCLINATION":87.9196,"RA_OF_ASC_NODE":256.5294,"ARG_OF_PERICENTER":113.2274,"MEAN_ANOMALY":246.9061,"EPHEMERIS_TYPE":0,"CLASSIFICATION_TYPE":"U","NORAD_CAT_ID":54649,"ELEMENT_SET_NO":999,"REV_AT_EPOCH":16319,"BSTAR":-0.00014056,"MEAN_MOTION_DOT":-4.5e-07,"MEAN_MOTION_DDOT":0.0},{"OBJECT_NAME":"ONEWEB-0583","OBJECT_ID":"2022-166J","EPOCH":"2026-04-15T03:55:34.348800","MEAN_MOTION":13.21826472,"ECCENTRICITY":0.0001863,"INCLINATION":87.9195,"RA_OF_ASC_NODE":256.5501,"ARG_OF_PERICENTER":103.9251,"MEAN_ANOMALY":256.209,"EPHEMERIS_TYPE":0,"CLASSIFICATION_TYPE":"U","NORAD_CAT_ID":54650,"ELEMENT_SET_NO":999,"REV_AT_EPOCH":16320,"BSTAR":-0.00010548,"MEAN_MOTION_DOT":-3.1e-07,"MEAN_MOTION_DDOT":0.0},{"OBJECT_NAME":"ONEWEB-0584","OBJECT_ID":"2022-166K","EPOCH":"2026-04-15T02:35:38.308128","MEAN_MOTION":13.21828573,"ECCENTRICITY":0.0001748,"INCLINATION":87.9193,"RA_OF_ASC_NODE":256.5484,"ARG_OF_PERICENTER":104.887,"MEAN_ANOMALY":255.2457,"EPHEMERIS_TYPE":0,"CLASSIFICATION_TYPE":"U","NORAD_CAT_ID":54651,"ELEMENT_SET_NO":999,"REV_AT_EPOCH":16318,"BSTAR":-7.0717e-05,"MEAN_MOTION_DOT":-1.6e-07,"MEAN_MOTION_DDOT":0.0},{"OBJECT_NAME":"ONEWEB-0585","OBJECT_ID":"2022-166L","EPOCH":"2026-04-15T03:09:30.240864","MEAN_MOTION":13.2182493,"ECCENTRICITY":0.0001858,"INCLINATION":87.9195,"RA_OF_ASC_NODE":256.5281,"ARG_OF_PERICENTER":93.5351,"MEAN_ANOMALY":266.5995,"EPHEMERIS_TYPE":0,"CLASSIFICATION_TYPE":"U","NORAD_CAT_ID":54652,"ELEMENT_SET_NO":999,"REV_AT_EPOCH":16319,"BSTAR":-7.9308e-06,"MEAN_MOTION_DOT":1e-07,"MEAN_MOTION_DDOT":0.0},{"OBJECT_NAME":"ONEWEB-0586","OBJECT_ID":"2022-166M","EPOCH":"2026-04-14T22:01:52.307328","MEAN_MOTION":13.21825533,"ECCENTRICITY":0.0001806,"INCLINATION":87.9193,"RA_OF_ASC_NODE":256.5967,"ARG_OF_PERICENTER":104.2844,"MEAN_ANOMALY":255.8491,"EPHEMERIS_TYPE":0,"CLASSIFICATION_TYPE":"U","NORAD_CAT_ID":54653,"ELEMENT_SET_NO":999,"REV_AT_EPOCH":16316,"BSTAR":-0.00018887000000000003,"MEAN_MOTION_DOT":-6.5e-07,"MEAN_MOTION_DDOT":0.0},{"OBJECT_NAME":"ONEWEB-0587","OBJECT_ID":"2022-166N","EPOCH":"2026-04-15T03:43:27.201216","MEAN_MOTION":13.21826466,"ECCENTRICITY":0.0001882,"INCLINATION":87.9208,"RA_OF_ASC_NODE":256.5171,"ARG_OF_PERICENTER":87.3486,"MEAN_ANOMALY":272.7864,"EPHEMERIS_TYPE":0,"CLASSIFICATION_TYPE":"U","NORAD_CAT_ID":54654,"ELEMENT_SET_NO":999,"REV_AT_EPOCH":16335,"BSTAR":-1.6868000000000002e-05,"MEAN_MOTION_DOT":6e-08,"MEAN_MOTION_DDOT":0.0},{"OBJECT_NAME":"ONEWEB-0589","OBJECT_ID":"2022-166P","EPOCH":"2026-04-15T03:24:02.277792","MEAN_MOTION":13.21824802,"ECCENTRICITY":0.0001924,"INCLINATION":87.9192,"RA_OF_ASC_NODE":256.5401,"ARG_OF_PERICENTER":126.1886,"MEAN_ANOMALY":233.9426,"EPHEMERIS_TYPE":0,"CLASSIFICATION_TYPE":"U","NORAD_CAT_ID":54655,"ELEMENT_SET_NO":999,"REV_AT_EPOCH":16321,"BSTAR":-0.0005985700000000001,"MEAN_MOTION_DOT":-2.34e-06,"MEAN_MOTION_DDOT":0.0},{"OBJECT_NAME":"ONEWEB-0590","OBJECT_ID":"2022-166Q","EPOCH":"2026-04-15T04:00:12.848832","MEAN_MOTION":13.2182608,"ECCENTRICITY":0.000135,"INCLINATION":87.9203,"RA_OF_ASC_NODE":256.519,"ARG_OF_PERICENTER":99.3246,"MEAN_ANOMALY":260.8041,"EPHEMERIS_TYPE":0,"CLASSIFICATION_TYPE":"U","NORAD_CAT_ID":54656,"ELEMENT_SET_NO":999,"REV_AT_EPOCH":16320,"BSTAR":-0.00013019,"MEAN_MOTION_DOT":-4.1e-07,"MEAN_MOTION_DDOT":0.0},{"OBJECT_NAME":"ONEWEB-0591","OBJECT_ID":"2022-166R","EPOCH":"2026-04-15T04:17:22.375680","MEAN_MOTION":13.21826493,"ECCENTRICITY":0.0001776,"INCLINATION":87.9197,"RA_OF_ASC_NODE":256.5361,"ARG_OF_PERICENTER":99.6238,"MEAN_ANOMALY":260.5097,"EPHEMERIS_TYPE":0,"CLASSIFICATION_TYPE":"U","NORAD_CAT_ID":54657,"ELEMENT_SET_NO":999,"REV_AT_EPOCH":16323,"BSTAR":-1.8051e-05,"MEAN_MOTION_DOT":6e-08,"MEAN_MOTION_DDOT":0.0},{"OBJECT_NAME":"ONEWEB-0592","OBJECT_ID":"2022-166S","EPOCH":"2026-04-15T04:22:12.759168","MEAN_MOTION":13.21826426,"ECCENTRICITY":0.0001815,"INCLINATION":87.9203,"RA_OF_ASC_NODE":256.5085,"ARG_OF_PERICENTER":98.7835,"MEAN_ANOMALY":261.3504,"EPHEMERIS_TYPE":0,"CLASSIFICATION_TYPE":"U","NORAD_CAT_ID":54658,"ELEMENT_SET_NO":999,"REV_AT_EPOCH":16311,"BSTAR":-0.00012211,"MEAN_MOTION_DOT":-3.7e-07,"MEAN_MOTION_DDOT":0.0},{"OBJECT_NAME":"ONEWEB-0593","OBJECT_ID":"2022-166T","EPOCH":"2026-04-15T03:04:39.455616","MEAN_MOTION":13.21823941,"ECCENTRICITY":0.0001971,"INCLINATION":87.9198,"RA_OF_ASC_NODE":256.5353,"ARG_OF_PERICENTER":102.3232,"MEAN_ANOMALY":257.8123,"EPHEMERIS_TYPE":0,"CLASSIFICATION_TYPE":"U","NORAD_CAT_ID":54659,"ELEMENT_SET_NO":999,"REV_AT_EPOCH":16321,"BSTAR":0.00010294,"MEAN_MOTION_DOT":5.6e-07,"MEAN_MOTION_DDOT":0.0},{"OBJECT_NAME":"ONEWEB-0594","OBJECT_ID":"2022-166U","EPOCH":"2026-04-15T03:33:43.551072","MEAN_MOTION":13.21824816,"ECCENTRICITY":0.0001833,"INCLINATION":87.9196,"RA_OF_ASC_NODE":256.5488,"ARG_OF_PERICENTER":95.8092,"MEAN_ANOMALY":264.3251,"EPHEMERIS_TYPE":0,"CLASSIFICATION_TYPE":"U","NORAD_CAT_ID":54660,"ELEMENT_SET_NO":999,"REV_AT_EPOCH":16323,"BSTAR":-0.00049593,"MEAN_MOTION_DOT":-1.92e-06,"MEAN_MOTION_DDOT":0.0},{"OBJECT_NAME":"ONEWEB-0595","OBJECT_ID":"2022-166V","EPOCH":"2026-04-15T02:59:48.930432","MEAN_MOTION":13.21823823,"ECCENTRICITY":0.0001748,"INCLINATION":87.9203,"RA_OF_ASC_NODE":256.5288,"ARG_OF_PERICENTER":92.5991,"MEAN_ANOMALY":267.5343,"EPHEMERIS_TYPE":0,"CLASSIFICATION_TYPE":"U","NORAD_CAT_ID":54661,"ELEMENT_SET_NO":999,"REV_AT_EPOCH":16320,"BSTAR":0.00010127,"MEAN_MOTION_DOT":5.5e-07,"MEAN_MOTION_DDOT":0.0},{"OBJECT_NAME":"ONEWEB-0596","OBJECT_ID":"2022-166W","EPOCH":"2026-04-15T04:12:31.672512","MEAN_MOTION":13.21826572,"ECCENTRICITY":0.0001821,"INCLINATION":87.9198,"RA_OF_ASC_NODE":256.5343,"ARG_OF_PERICENTER":96.0575,"MEAN_ANOMALY":264.0767,"EPHEMERIS_TYPE":0,"CLASSIFICATION_TYPE":"U","NORAD_CAT_ID":54662,"ELEMENT_SET_NO":999,"REV_AT_EPOCH":16321,"BSTAR":-0.00023782,"MEAN_MOTION_DOT":-8.5e-07,"MEAN_MOTION_DDOT":0.0},{"OBJECT_NAME":"ONEWEB-0597","OBJECT_ID":"2022-166X","EPOCH":"2026-04-15T03:45:52.912224","MEAN_MOTION":13.2182588,"ECCENTRICITY":0.0001861,"INCLINATION":87.9196,"RA_OF_ASC_NODE":256.5423,"ARG_OF_PERICENTER":102.9737,"MEAN_ANOMALY":257.1605,"EPHEMERIS_TYPE":0,"CLASSIFICATION_TYPE":"U","NORAD_CAT_ID":54663,"ELEMENT_SET_NO":999,"REV_AT_EPOCH":16321,"BSTAR":4.3645e-05,"MEAN_MOTION_DOT":3.1e-07,"MEAN_MOTION_DDOT":0.0},{"OBJECT_NAME":"ONEWEB-0600","OBJECT_ID":"2022-166Y","EPOCH":"2026-04-15T03:19:11.598816","MEAN_MOTION":13.21825552,"ECCENTRICITY":0.0002052,"INCLINATION":87.9195,"RA_OF_ASC_NODE":256.5371,"ARG_OF_PERICENTER":100.1255,"MEAN_ANOMALY":260.0111,"EPHEMERIS_TYPE":0,"CLASSIFICATION_TYPE":"U","NORAD_CAT_ID":54664,"ELEMENT_SET_NO":999,"REV_AT_EPOCH":16318,"BSTAR":-0.00062598,"MEAN_MOTION_DOT":-2.45e-06,"MEAN_MOTION_DDOT":0.0},{"OBJECT_NAME":"ONEWEB-0601","OBJECT_ID":"2022-166Z","EPOCH":"2026-04-15T03:07:05.054304","MEAN_MOTION":13.2182337,"ECCENTRICITY":0.0001881,"INCLINATION":87.9198,"RA_OF_ASC_NODE":256.5552,"ARG_OF_PERICENTER":107.3447,"MEAN_ANOMALY":252.7893,"EPHEMERIS_TYPE":0,"CLASSIFICATION_TYPE":"U","NORAD_CAT_ID":54665,"ELEMENT_SET_NO":999,"REV_AT_EPOCH":16337,"BSTAR":0.0001963,"MEAN_MOTION_DOT":9.4e-07,"MEAN_MOTION_DDOT":0.0}]